{
  "type": "FeatureCollection",
  "features": [
    {
      "type": "Feature",
      "properties": {
        "id": "75a7615c-2222-5014-909a-eb54ed07490c",
        "name": "realistic_garden_operation_area",
        "type": "operation",
        "fill": "#00ff00",
        "style": {
          "color": "#00ff00"
        }
      },
      "geometry": {
        "type": "Polygon",
        "coordinates": [
          [
            [
              -43.20004015677601,
              -22.90003268840517
            ],
            [
              -43.199959843223986,
              -22.90003268840517
            ],
            [
              -43.19995984324323,
              -22.899967311584547
            ],
            [
              -43.20004015675677,
              -22.899967311584547
            ],
            [
              -43.20004015677601,
              -22.90003268840517
            ]
          ]
        ]
      }
    },
    {
      "type": "Feature",
      "properties": {
        "id": "30baf514-e0bd-5c3c-9707-86bd71614834",
        "name": "house_wall",
        "type": "exclusion",
        "fill": "#ff0000",
        "style": {
          "color": "#ff0000"
        }
      },
      "geometry": {
        "type": "Polygon",
        "coordinates": [
          [
            [
              -43.199978069727315,
              -22.899998645506344
            ],
            [
              -43.1999507787213,
              -22.899998645500236
            ],
            [
              -43.199950778731726,
              -22.899969749667864
            ],
            [
              -43.19997806973196,
              -22.89996974967397
            ],
            [
              -43.199978069727315,
              -22.899998645506344
            ]
          ]
        ]
      }
    },
    {
      "type": "Feature",
      "properties": {
        "id": "e065db11-639a-590b-8057-31cf7f091f70",
        "name": "oak_tree",
        "type": "exclusion",
        "fill": "#ff0000",
        "style": {
          "color": "#ff0000"
        }
      },
      "geometry": {
        "type": "Polygon",
        "coordinates": [
          [
            [
              -43.200024172031256,
              -22.899983746092467
            ],
            [
              -43.20002426106278,
              -22.899983331419094
            ],
            [
              -43.20002451460325,
              -22.89998297987595
            ],
            [
              -43.200024894053435,
              -22.899982744982303
            ],
            [
              -43.20002534164547,
              -22.89998266249857
            ],
            [
              -43.20002578923754,
              -22.899982744982157
            ],
            [
              -43.20002616868781,
              -22.899982979875684
            ],
            [
              -43.20002642222842,
              -22.899983331418746
            ],
            [
              -43.20002651126009,
              -22.899983746092094
            ],
            [
              -43.200026422228575,
              -22.89998416076547
            ],
            [
              -43.200026168688105,
              -22.899984512308617
            ],
            [
              -43.20002578923792,
              -22.899984747202264
            ],
            [
              -43.20002534164587,
              -22.899984829685994
            ],
            [
              -43.2000248940538,
              -22.899984747202403
            ],
            [
              -43.20002451460352,
              -22.899984512308876
            ],
            [
              -43.20002426106293,
              -22.89998416076581
            ],
            [
              -43.200024172031256,
              -22.899983746092467
            ]
          ]
        ]
      }
    },
    {
      "type": "Feature",
      "properties": {
        "id": "a3f1b67e-0f22-55d6-9369-1703aebb1846",
        "name": "young_tree",
        "type": "exclusion",
        "fill": "#ff0000",
        "style": {
          "color": "#ff0000"
        }
      },
      "geometry": {
        "type": "Polygon",
        "coordinates": [
          [
            [
              -43.19998713423828,
              -22.9000171568999
            ],
            [
              -43.199987223269936,
              -22.900016742226548
            ],
            [
              -43.19998747681056,
              -22.90001639068346
            ],
            [
              -43.1999878562609,
              -22.900016155789903
            ],
            [
              -43.19998830385307,
              -22.900016073306276
            ],
            [
              -43.199988751445225,
              -22.900016155789967
            ],
            [
              -43.199989130895524,
              -22.900016390683582
            ],
            [
              -43.1999893844361,
              -22.9000167422267
            ],
            [
              -43.19998947346768,
              -22.900017156900066
            ],
            [
              -43.19998938443604,
              -22.900017571573425
            ],
            [
              -43.19998913089541,
              -22.900017923116508
            ],
            [
              -43.19998875144507,
              -22.90001815801007
            ],
            [
              -43.199988303852884,
              -22.900018240493694
            ],
            [
              -43.19998785626072,
              -22.900018158010006
            ],
            [
              -43.19998747681042,
              -22.900017923116387
            ],
            [
              -43.19998722326985,
              -22.90001757157326
            ],
            [
              -43.19998713423828,
              -22.9000171568999
            ]
          ]
        ]
      }
    },
    {
      "type": "Feature",
      "properties": {
        "id": "2bec3f7f-ce2f-5985-b39c-bcc845de35da",
        "name": "docking_station",
        "type": "docking_station"
      },
      "geometry": {
        "type": "LineString",
        "coordinates": [
          [
            -43.199982260847676,
            -22.8999864550776
          ],
          [
            -43.19998713424118,
            -22.899986455078068
          ]
        ]
      }
    }
  ]
}
